{
  "type": "FeatureCollection",
  "features": [
    {
      "type": "Feature",
      "properties": {
        "norad_id": 29780,
        "name": "FENGYUN 1C DEB",
        "group": "fengyun-1c-debris",
        "lat": 23.13843514363839,
        "lon": 107.27657966916742,
        "alt_km": 811.0157266868418,
        "timestamp": "2025-12-27T14:26:30.792926+00:00",
        "meta_object_name": "FENGYUN 1C DEB",
        "meta_object_id": "1999-025BW",
        "meta_epoch": "2025-12-26T07:17:51.271296",
        "meta_mean_motion": 14.211339,
        "meta_eccentricity": 0.0042031,
        "meta_inclination": 99.278,
        "meta_ra_of_asc_node": 281.9088,
        "meta_arg_of_pericenter": 89.0919,
        "meta_mean_anomaly": 271.5072,
        "meta_ephemeris_type": 0,
        "meta_classification_type": "U",
        "meta_norad_cat_id": 29780,
        "meta_element_set_no": 999,
        "meta_rev_at_epoch": 97271,
        "meta_bstar": 0.0017695,
        "meta_mean_motion_dot": 3.834e-05,
        "meta_mean_motion_ddot": 0,
        "tle_line1": "1 29780U 99025BW  25360.30406564  .00003834  00000+0  17695-2 0  9992",
        "tle_line2": "2 29780  99.2780 281.9088 0042031  89.0919 271.5072 14.21133900972719"
      },
      "geometry": {
        "type": "Point",
        "coordinates": [
          107.27657966916742,
          23.13843514363839
        ]
      }
    },
    {
      "type": "Feature",
      "properties": {
        "norad_id": 29781,
        "name": "FENGYUN 1C DEB",
        "group": "fengyun-1c-debris",
        "lat": -20.832959272061952,
        "lon": -1.2831268715534652,
        "alt_km": 927.3368094272128,
        "timestamp": "2025-12-27T14:26:30.792936+00:00",
        "meta_object_name": "FENGYUN 1C DEB",
        "meta_object_id": "1999-025BX",
        "meta_epoch": "2025-12-26T23:25:39.627840",
        "meta_mean_motion": 14.05260391,
        "meta_eccentricity": 0.0072443,
        "meta_inclination": 98.8108,
        "meta_ra_of_asc_node": 354.7256,
        "meta_arg_of_pericenter": 133.2661,
        "meta_mean_anomaly": 283.0582,
        "meta_ephemeris_type": 0,
        "meta_classification_type": "U",
        "meta_norad_cat_id": 29781,
        "meta_element_set_no": 999,
        "meta_rev_at_epoch": 96843,
        "meta_bstar": 0.00062519,
        "meta_mean_motion_dot": 9.93e-06,
        "meta_mean_motion_ddot": 0,
        "tle_line1": "1 29781U 99025BX  25360.97615310  .00000993  00000+0  62519-3 0  9996",
        "tle_line2": "2 29781  98.8108 354.7256 0072443 133.2661 283.0582 14.05260391968436"
      },
      "geometry": {
        "type": "Point",
        "coordinates": [
          -1.2831268715534652,
          -20.832959272061952
        ]
      }
    },
    {
      "type": "Feature",
      "properties": {
        "norad_id": 29782,
        "name": "FENGYUN 1C DEB",
        "group": "fengyun-1c-debris",
        "lat": 1.5180117326723221,
        "lon": 55.16261780288628,
        "alt_km": 894.1874387543976,
        "timestamp": "2025-12-27T14:26:30.792947+00:00",
        "meta_object_name": "FENGYUN 1C DEB",
        "meta_object_id": "1999-025BY",
        "meta_epoch": "2025-12-27T02:47:30.066144",
        "meta_mean_motion": 14.11728482,
        "meta_eccentricity": 0.00557432,
        "meta_inclination": 99.0994,
        "meta_ra_of_asc_node": 54.9138,
        "meta_arg_of_pericenter": 163.7805,
        "meta_mean_anomaly": 252.4073,
        "meta_ephemeris_type": 0,
        "meta_classification_type": "U",
        "meta_norad_cat_id": 29782,
        "meta_element_set_no": 999,
        "meta_rev_at_epoch": 96874,
        "meta_bstar": 0.0013823399,
        "meta_mean_motion_dot": 2.51e-05,
        "meta_mean_motion_ddot": 0,
        "tle_line1": "1 29782U 99025BY  25361.11632021  .00002510  00000+0  13823-2 0  9992",
        "tle_line2": "2 29782  99.0994  54.9138 0055743 163.7805 252.4073 14.11728482968749"
      },
      "geometry": {
        "type": "Point",
        "coordinates": [
          55.16261780288628,
          1.5180117326723221
        ]
      }
    },
    {
      "type": "Feature",
      "properties": {
        "norad_id": 29784,
        "name": "FENGYUN 1C DEB",
        "group": "fengyun-1c-debris",
        "lat": 79.52991229203485,
        "lon": -137.65606405191198,
        "alt_km": 823.8273774119825,
        "timestamp": "2025-12-27T14:26:30.792957+00:00",
        "meta_object_name": "FENGYUN 1C DEB",
        "meta_object_id": "1999-025CA",
        "meta_epoch": "2025-12-27T07:52:31.889568",
        "meta_mean_motion": 14.30622669,
        "meta_eccentricity": 0.00591262,
        "meta_inclination": 98.9467,
        "meta_ra_of_asc_node": 280.5419,
        "meta_arg_of_pericenter": 254.2247,
        "meta_mean_anomaly": 222.163,
        "meta_ephemeris_type": 0,
        "meta_classification_type": "U",
        "meta_norad_cat_id": 29784,
        "meta_element_set_no": 999,
        "meta_rev_at_epoch": 98568,
        "meta_bstar": 0.00054525149,
        "meta_mean_motion_dot": 1.404e-05,
        "meta_mean_motion_ddot": 0,
        "tle_line1": "1 29784U 99025CA  25361.32814687  .00001404  00000+0  54525-3 0  9993",
        "tle_line2": "2 29784  98.9467 280.5419 0059126 254.2247 222.1630 14.30622669985684"
      },
      "geometry": {
        "type": "Point",
        "coordinates": [
          -137.65606405191198,
          79.52991229203485
        ]
      }
    },
    {
      "type": "Feature",
      "properties": {
        "norad_id": 29786,
        "name": "FENGYUN 1C DEB",
        "group": "fengyun-1c-debris",
        "lat": -44.53485156854121,
        "lon": 27.06627272998811,
        "alt_km": 836.4307399982354,
        "timestamp": "2025-12-27T14:26:30.792967+00:00",
        "meta_object_name": "FENGYUN 1C DEB",
        "meta_object_id": "1999-025CC",
        "meta_epoch": "2025-12-27T07:54:48.136320",
        "meta_mean_motion": 14.09094122,
        "meta_eccentricity": 0.00768807,
        "meta_inclination": 98.7349,
        "meta_ra_of_asc_node": 18.1023,
        "meta_arg_of_pericenter": 261.2608,
        "meta_mean_anomaly": 113.7879,
        "meta_ephemeris_type": 0,
        "meta_classification_type": "U",
        "meta_norad_cat_id": 29786,
        "meta_element_set_no": 999,
        "meta_rev_at_epoch": 97366,
        "meta_bstar": 0.00021971105,
        "meta_mean_motion_dot": 3.48e-06,
        "meta_mean_motion_ddot": 0,
        "tle_line1": "1 29786U 99025CC  25361.32972380  .00000348  00000+0  21971-3 0  9995",
        "tle_line2": "2 29786  98.7349  18.1023 0076880 261.2608 113.7879 14.09094122973662"
      },
      "geometry": {
        "type": "Point",
        "coordinates": [
          27.06627272998811,
          -44.53485156854121
        ]
      }
    },
    {
      "type": "Feature",
      "properties": {
        "norad_id": 29788,
        "name": "FENGYUN 1C DEB",
        "group": "fengyun-1c-debris",
        "lat": 70.94989643197619,
        "lon": 46.663745468647726,
        "alt_km": 789.6276009583798,
        "timestamp": "2025-12-27T14:26:30.792977+00:00",
        "meta_object_name": "FENGYUN 1C DEB",
        "meta_object_id": "1999-025CE",
        "meta_epoch": "2025-12-27T04:15:06.268896",
        "meta_mean_motion": 14.26078359,
        "meta_eccentricity": 0.00430441,
        "meta_inclination": 98.7828,
        "meta_ra_of_asc_node": 72.8356,
        "meta_arg_of_pericenter": 148.8772,
        "meta_mean_anomaly": 266.098,
        "meta_ephemeris_type": 0,
        "meta_classification_type": "U",
        "meta_norad_cat_id": 29788,
        "meta_element_set_no": 999,
        "meta_rev_at_epoch": 97561,
        "meta_bstar": 0.0017034137,
        "meta_mean_motion_dot": 4.068e-05,
        "meta_mean_motion_ddot": 0,
        "tle_line1": "1 29788U 99025CE  25361.17715589  .00004068  00000+0  17034-2 0  9993",
        "tle_line2": "2 29788  98.7828  72.8356 0043044 148.8772 266.0980 14.26078359975615"
      },
      "geometry": {
        "type": "Point",
        "coordinates": [
          46.663745468647726,
          70.94989643197619
        ]
      }
    },
    {
      "type": "Feature",
      "properties": {
        "norad_id": 29789,
        "name": "FENGYUN 1C DEB",
        "group": "fengyun-1c-debris",
        "lat": -11.690519799239569,
        "lon": -174.25534556782668,
        "alt_km": 1119.3504471835495,
        "timestamp": "2025-12-27T14:26:30.792987+00:00",
        "meta_object_name": "FENGYUN 1C DEB",
        "meta_object_id": "1999-025CF",
        "meta_epoch": "2025-12-27T06:33:35.382816",
        "meta_mean_motion": 13.54276386,
        "meta_eccentricity": 0.02982746,
        "meta_inclination": 99.4515,
        "meta_ra_of_asc_node": 183.4551,
        "meta_arg_of_pericenter": 242.1284,
        "meta_mean_anomaly": 302.4963,
        "meta_ephemeris_type": 0,
        "meta_classification_type": "U",
        "meta_norad_cat_id": 29789,
        "meta_element_set_no": 999,
        "meta_rev_at_epoch": 93184,
        "meta_bstar": 0.0016001332,
        "meta_mean_motion_dot": 1.402e-05,
        "meta_mean_motion_ddot": 0,
        "tle_line1": "1 29789U 99025CF  25361.27332619  .00001402  00000+0  16001-2 0  9996",
        "tle_line2": "2 29789  99.4515 183.4551 0298274 242.1284 302.4963 13.54276386931849"
      },
      "geometry": {
        "type": "Point",
        "coordinates": [
          -174.25534556782668,
          -11.690519799239569
        ]
      }
    }
  ]
}